CCSDS_OMM_VERS = 2.0
CREATION_DATE  = 
ORIGINATOR     = 

OBJECT_NAME    = ATLAS CENTAUR R/B
OBJECT_ID      = 1972-065B
CENTER_NAME    = EARTH
REF_FRAME      = TEME
TIME_SYSTEM    = UTC
MEAN_ELEMENT_THEORY = SGP/SGP4

EPOCH          = 2026-03-05T03:59:43.608480
MEAN_MOTION    = 14.77672398
ECCENTRICITY   = .0034057
INCLINATION    = 35.0027
RA_OF_ASC_NODE = 332.2612
ARG_OF_PERICENTER = 330.9082
MEAN_ANOMALY   = 28.9721

EPHEMERIS_TYPE = 0
CLASSIFICATION_TYPE = U
NORAD_CAT_ID   = 6155
ELEMENT_SET_NO = 999
REV_AT_EPOCH   = 84059
BSTAR          = .24039435E-3
MEAN_MOTION_DOT = .1743E-4
MEAN_MOTION_DDOT = 0

CCSDS_OMM_VERS = 2.0
CREATION_DATE  = 
ORIGINATOR     = 

OBJECT_NAME    = SL-8 R/B
OBJECT_ID      = 1975-112B
CENTER_NAME    = EARTH
REF_FRAME      = TEME
TIME_SYSTEM    = UTC
MEAN_ELEMENT_THEORY = SGP/SGP4

EPOCH          = 2026-03-05T04:34:10.801920
MEAN_MOTION    = 14.38200329
ECCENTRICITY   = .00145308
INCLINATION    = 74.0619
RA_OF_ASC_NODE = 27.1880
ARG_OF_PERICENTER = 122.3559
MEAN_ANOMALY   = 237.9004

EPHEMERIS_TYPE = 0
CLASSIFICATION_TYPE = U
NORAD_CAT_ID   = 8459
ELEMENT_SET_NO = 999
REV_AT_EPOCH   = 63122
BSTAR          = .10429663E-3
MEAN_MOTION_DOT = .291E-5
MEAN_MOTION_DDOT = 0

CCSDS_OMM_VERS = 2.0
CREATION_DATE  = 
ORIGINATOR     = 

OBJECT_NAME    = SL-3 R/B
OBJECT_ID      = 1977-057B
CENTER_NAME    = EARTH
REF_FRAME      = TEME
TIME_SYSTEM    = UTC
MEAN_ELEMENT_THEORY = SGP/SGP4

EPOCH          = 2026-03-05T06:01:50.302560
MEAN_MOTION    = 15.45345085
ECCENTRICITY   = .00063001
INCLINATION    = 97.5764
RA_OF_ASC_NODE = 235.9774
ARG_OF_PERICENTER = 303.5863
MEAN_ANOMALY   = 56.4784

EPHEMERIS_TYPE = 0
CLASSIFICATION_TYPE = U
NORAD_CAT_ID   = 10114
ELEMENT_SET_NO = 999
REV_AT_EPOCH   = 66764
BSTAR          = .34330435E-3
MEAN_MOTION_DOT = .16307E-3
MEAN_MOTION_DDOT = 0

CCSDS_OMM_VERS = 2.0
CREATION_DATE  = 
ORIGINATOR     = 

OBJECT_NAME    = SEASAT 1
OBJECT_ID      = 1978-064A
CENTER_NAME    = EARTH
REF_FRAME      = TEME
TIME_SYSTEM    = UTC
MEAN_ELEMENT_THEORY = SGP/SGP4

EPOCH          = 2026-03-05T03:19:05.730528
MEAN_MOTION    = 14.46155861
ECCENTRICITY   = .00022054
INCLINATION    = 108.0119
RA_OF_ASC_NODE = 115.9490
ARG_OF_PERICENTER = 287.3254
MEAN_ANOMALY   = 72.7650

EPHEMERIS_TYPE = 0
CLASSIFICATION_TYPE = U
NORAD_CAT_ID   = 10967
ELEMENT_SET_NO = 999
REV_AT_EPOCH   = 50585
BSTAR          = .11534668E-3
MEAN_MOTION_DOT = .275E-5
MEAN_MOTION_DDOT = 0

CCSDS_OMM_VERS = 2.0
CREATION_DATE  = 
ORIGINATOR     = 

OBJECT_NAME    = SL-14 R/B
OBJECT_ID      = 1979-011B
CENTER_NAME    = EARTH
REF_FRAME      = TEME
TIME_SYSTEM    = UTC
MEAN_ELEMENT_THEORY = SGP/SGP4

EPOCH          = 2026-03-05T03:41:33.735552
MEAN_MOTION    = 14.91901860
ECCENTRICITY   = .00175656
INCLINATION    = 82.5213
RA_OF_ASC_NODE = 100.8761
ARG_OF_PERICENTER = 74.4309
MEAN_ANOMALY   = 285.8848

EPHEMERIS_TYPE = 0
CLASSIFICATION_TYPE = U
NORAD_CAT_ID   = 11267
ELEMENT_SET_NO = 999
REV_AT_EPOCH   = 52810
BSTAR          = .6850096E-4
MEAN_MOTION_DOT = .72E-5
MEAN_MOTION_DDOT = 0

CCSDS_OMM_VERS = 2.0
CREATION_DATE  = 
ORIGINATOR     = 

OBJECT_NAME    = SL-8 R/B
OBJECT_ID      = 1979-089B
CENTER_NAME    = EARTH
REF_FRAME      = TEME
TIME_SYSTEM    = UTC
MEAN_ELEMENT_THEORY = SGP/SGP4

EPOCH          = 2026-03-05T05:41:29.071392
MEAN_MOTION    = 14.42347335
ECCENTRICITY   = .00171367
INCLINATION    = 74.0672
RA_OF_ASC_NODE = 99.2870
ARG_OF_PERICENTER = 272.3978
MEAN_ANOMALY   = 87.5216

EPHEMERIS_TYPE = 0
CLASSIFICATION_TYPE = U
NORAD_CAT_ID   = 11574
ELEMENT_SET_NO = 999
REV_AT_EPOCH   = 43546
BSTAR          = .11914039E-3
MEAN_MOTION_DOT = .368E-5
MEAN_MOTION_DDOT = 0

CCSDS_OMM_VERS = 2.0
CREATION_DATE  = 
ORIGINATOR     = 

OBJECT_NAME    = SL-14 R/B
OBJECT_ID      = 1980-005B
CENTER_NAME    = EARTH
REF_FRAME      = TEME
TIME_SYSTEM    = UTC
MEAN_ELEMENT_THEORY = SGP/SGP4

EPOCH          = 2026-03-05T03:56:01.058496
MEAN_MOTION    = 14.90924299
ECCENTRICITY   = .00157848
INCLINATION    = 82.5154
RA_OF_ASC_NODE = 311.5291
ARG_OF_PERICENTER = 172.9693
MEAN_ANOMALY   = 187.1751

EPHEMERIS_TYPE = 0
CLASSIFICATION_TYPE = U
NORAD_CAT_ID   = 11672
ELEMENT_SET_NO = 999
REV_AT_EPOCH   = 47581
BSTAR          = .75871386E-4
MEAN_MOTION_DOT = .775E-5
MEAN_MOTION_DDOT = 0

CCSDS_OMM_VERS = 2.0
CREATION_DATE  = 
ORIGINATOR     = 

OBJECT_NAME    = SL-8 R/B
OBJECT_ID      = 1981-003B
CENTER_NAME    = EARTH
REF_FRAME      = TEME
TIME_SYSTEM    = UTC
MEAN_ELEMENT_THEORY = SGP/SGP4

EPOCH          = 2026-03-05T02:23:27.419424
MEAN_MOTION    = 15.10758620
ECCENTRICITY   = .02626175
INCLINATION    = 82.9385
RA_OF_ASC_NODE = 294.2686
ARG_OF_PERICENTER = 194.5791
MEAN_ANOMALY   = 164.7768

EPHEMERIS_TYPE = 0
CLASSIFICATION_TYPE = U
NORAD_CAT_ID   = 12139
ELEMENT_SET_NO = 999
REV_AT_EPOCH   = 31398
BSTAR          = .54116078E-3
MEAN_MOTION_DOT = .2099E-3
MEAN_MOTION_DDOT = 0

CCSDS_OMM_VERS = 2.0
CREATION_DATE  = 
ORIGINATOR     = 

OBJECT_NAME    = SL-3 R/B
OBJECT_ID      = 1981-046B
CENTER_NAME    = EARTH
REF_FRAME      = TEME
TIME_SYSTEM    = UTC
MEAN_ELEMENT_THEORY = SGP/SGP4

EPOCH          = 2026-03-05T05:48:15.824448
MEAN_MOTION    = 15.41858348
ECCENTRICITY   = .00199655
INCLINATION    = 81.2304
RA_OF_ASC_NODE = 295.0856
ARG_OF_PERICENTER = 37.3903
MEAN_ANOMALY   = 322.8724

EPHEMERIS_TYPE = 0
CLASSIFICATION_TYPE = U
NORAD_CAT_ID   = 12465
ELEMENT_SET_NO = 999
REV_AT_EPOCH   = 43774
BSTAR          = .35196841E-3
MEAN_MOTION_DOT = .15076E-3
MEAN_MOTION_DDOT = 0

CCSDS_OMM_VERS = 2.0
CREATION_DATE  = 
ORIGINATOR     = 

OBJECT_NAME    = SL-3 R/B
OBJECT_ID      = 1981-103B
CENTER_NAME    = EARTH
REF_FRAME      = TEME
TIME_SYSTEM    = UTC
MEAN_ELEMENT_THEORY = SGP/SGP4

EPOCH          = 2026-03-05T05:37:01.522560
MEAN_MOTION    = 15.21310641
ECCENTRICITY   = .00124541
INCLINATION    = 81.1579
RA_OF_ASC_NODE = 218.6584
ARG_OF_PERICENTER = 302.7510
MEAN_ANOMALY   = 57.2520

EPHEMERIS_TYPE = 0
CLASSIFICATION_TYPE = U
NORAD_CAT_ID   = 12904
ELEMENT_SET_NO = 999
REV_AT_EPOCH   = 97255
BSTAR          = .3594111E-3
MEAN_MOTION_DOT = .8083E-4
MEAN_MOTION_DDOT = 0

CCSDS_OMM_VERS = 2.0
CREATION_DATE  = 
ORIGINATOR     = 

OBJECT_NAME    = SL-3 R/B
OBJECT_ID      = 1982-013B
CENTER_NAME    = EARTH
REF_FRAME      = TEME
TIME_SYSTEM    = UTC
MEAN_ELEMENT_THEORY = SGP/SGP4

EPOCH          = 2026-03-05T05:51:20.385216
MEAN_MOTION    = 15.21961057
ECCENTRICITY   = .00223769
INCLINATION    = 81.1767
RA_OF_ASC_NODE = 165.9798
ARG_OF_PERICENTER = 192.2934
MEAN_ANOMALY   = 167.7755

EPHEMERIS_TYPE = 0
CLASSIFICATION_TYPE = U
NORAD_CAT_ID   = 13068
ELEMENT_SET_NO = 999
REV_AT_EPOCH   = 40367
BSTAR          = .27111817E-3
MEAN_MOTION_DOT = .625E-4
MEAN_MOTION_DDOT = 0

CCSDS_OMM_VERS = 2.0
CREATION_DATE  = 
ORIGINATOR     = 

OBJECT_NAME    = SL-3 R/B
OBJECT_ID      = 1982-039B
CENTER_NAME    = EARTH
REF_FRAME      = TEME
TIME_SYSTEM    = UTC
MEAN_ELEMENT_THEORY = SGP/SGP4

EPOCH          = 2026-03-05T06:48:13.728672
MEAN_MOTION    = 15.10049873
ECCENTRICITY   = .00298415
INCLINATION    = 81.1582
RA_OF_ASC_NODE = 221.0417
ARG_OF_PERICENTER = 338.8451
MEAN_ANOMALY   = 21.1537

EPHEMERIS_TYPE = 0
CLASSIFICATION_TYPE = U
NORAD_CAT_ID   = 13154
ELEMENT_SET_NO = 999
REV_AT_EPOCH   = 38097
BSTAR          = .23116881E-3
MEAN_MOTION_DOT = .3822E-4
MEAN_MOTION_DDOT = 0

